{
  "type": "FeatureCollection",
  "features": [
    {
      "type": "Feature",
      "properties": {
        "norad_id": 31452,
        "name": "FENGYUN 1C DEB",
        "group": "fengyun-1c-debris",
        "lat": -67.08800683573344,
        "lon": -10.530758939415545,
        "alt_km": 873.6477272995035,
        "timestamp": "2025-12-07T05:38:10.186601+00:00",
        "meta_object_name": "FENGYUN 1C DEB",
        "meta_object_id": "1999-025BUQ",
        "meta_epoch": "2025-12-02T05:28:59.848608",
        "meta_mean_motion": 14.15144251,
        "meta_eccentricity": 0.004031,
        "meta_inclination": 98.658,
        "meta_ra_of_asc_node": 323.48,
        "meta_arg_of_pericenter": 157.7123,
        "meta_mean_anomaly": 202.5814,
        "meta_ephemeris_type": 0,
        "meta_classification_type": "U",
        "meta_norad_cat_id": 31452,
        "meta_element_set_no": 999,
        "meta_rev_at_epoch": 96057,
        "meta_bstar": 0.00046116,
        "meta_mean_motion_dot": 8.6e-06,
        "meta_mean_motion_ddot": 0,
        "tle_line1": "1 31452U 99025BUQ 25336.22847047  .00000860  00000+0  46116-3 0  9997",
        "tle_line2": "2 31452  98.6580 323.4800 0040310 157.7123 202.5814 14.15144251960574"
      },
      "geometry": {
        "type": "Point",
        "coordinates": [
          -10.530758939415545,
          -67.08800683573344
        ]
      }
    },
    {
      "type": "Feature",
      "properties": {
        "norad_id": 31455,
        "name": "FENGYUN 1C DEB",
        "group": "fengyun-1c-debris",
        "lat": -18.61806490287781,
        "lon": -27.38059367234856,
        "alt_km": 843.814529015066,
        "timestamp": "2025-12-07T05:38:10.186611+00:00",
        "meta_object_name": "FENGYUN 1C DEB",
        "meta_object_id": "1999-025BUT",
        "meta_epoch": "2025-12-01T05:06:27.684288",
        "meta_mean_motion": 14.11407074,
        "meta_eccentricity": 0.0218887,
        "meta_inclination": 98.5737,
        "meta_ra_of_asc_node": 323.9486,
        "meta_arg_of_pericenter": 84.0104,
        "meta_mean_anomaly": 278.5966,
        "meta_ephemeris_type": 0,
        "meta_classification_type": "U",
        "meta_norad_cat_id": 31455,
        "meta_element_set_no": 999,
        "meta_rev_at_epoch": 95941,
        "meta_bstar": 0.00026567,
        "meta_mean_motion_dot": 5.62e-06,
        "meta_mean_motion_ddot": 0,
        "tle_line1": "1 31455U 99025BUT 25335.21282042  .00000562  00000+0  26567-3 0  9993",
        "tle_line2": "2 31455  98.5737 323.9486 0218887  84.0104 278.5966 14.11407074959415"
      },
      "geometry": {
        "type": "Point",
        "coordinates": [
          -27.38059367234856,
          -18.61806490287781
        ]
      }
    },
    {
      "type": "Feature",
      "properties": {
        "norad_id": 31456,
        "name": "FENGYUN 1C DEB",
        "group": "fengyun-1c-debris",
        "lat": 72.04008880219779,
        "lon": 55.79784217653448,
        "alt_km": 754.3033626646247,
        "timestamp": "2025-12-07T05:38:10.186621+00:00",
        "meta_object_name": "FENGYUN 1C DEB",
        "meta_object_id": "1999-025BUU",
        "meta_epoch": "2025-12-06T02:39:24.925824",
        "meta_mean_motion": 14.42343654,
        "meta_eccentricity": 0.00676762,
        "meta_inclination": 98.5779,
        "meta_ra_of_asc_node": 82.4202,
        "meta_arg_of_pericenter": 334.5783,
        "meta_mean_anomaly": 25.2082,
        "meta_ephemeris_type": 0,
        "meta_classification_type": "U",
        "meta_norad_cat_id": 31456,
        "meta_element_set_no": 999,
        "meta_rev_at_epoch": 97371,
        "meta_bstar": 0.0014083504,
        "meta_mean_motion_dot": 4.738e-05,
        "meta_mean_motion_ddot": 0,
        "tle_line1": "1 31456U 99025BUU 25340.11070516  .00004738  00000+0  14084-2 0  9999",
        "tle_line2": "2 31456  98.5779  82.4202 0067676 334.5783  25.2082 14.42343654973711"
      },
      "geometry": {
        "type": "Point",
        "coordinates": [
          55.79784217653448,
          72.04008880219779
        ]
      }
    },
    {
      "type": "Feature",
      "properties": {
        "norad_id": 31459,
        "name": "FENGYUN 1C DEB",
        "group": "fengyun-1c-debris",
        "lat": -16.758145181842387,
        "lon": -107.81006281791377,
        "alt_km": 814.5847689801176,
        "timestamp": "2025-12-07T05:38:10.186632+00:00",
        "meta_object_name": "FENGYUN 1C DEB",
        "meta_object_id": "1999-025BUX",
        "meta_epoch": "2025-12-03T23:33:06.597504",
        "meta_mean_motion": 14.43947822,
        "meta_eccentricity": 0.00935426,
        "meta_inclination": 98.1742,
        "meta_ra_of_asc_node": 246.583,
        "meta_arg_of_pericenter": 158.5595,
        "meta_mean_anomaly": 201.9555,
        "meta_ephemeris_type": 0,
        "meta_classification_type": "U",
        "meta_norad_cat_id": 31459,
        "meta_element_set_no": 999,
        "meta_rev_at_epoch": 64431,
        "meta_bstar": 0.0027458624,
        "meta_mean_motion_dot": 9.856e-05,
        "meta_mean_motion_ddot": 0,
        "tle_line1": "1 31459U 99025BUX 25337.98132636  .00009856  00000+0  27459-2 0  9991",
        "tle_line2": "2 31459  98.1742 246.5830 0093542 158.5595 201.9555 14.43947822644313"
      },
      "geometry": {
        "type": "Point",
        "coordinates": [
          -107.81006281791377,
          -16.758145181842387
        ]
      }
    },
    {
      "type": "Feature",
      "properties": {
        "norad_id": 31462,
        "name": "FENGYUN 1C DEB",
        "group": "fengyun-1c-debris",
        "lat": 56.84517221854451,
        "lon": -13.742518339905239,
        "alt_km": 865.5333540797828,
        "timestamp": "2025-12-07T05:38:10.186642+00:00",
        "meta_object_name": "FENGYUN 1C DEB",
        "meta_object_id": "1999-025BVA",
        "meta_epoch": "2025-12-06T00:36:30.839616",
        "meta_mean_motion": 14.12997652,
        "meta_eccentricity": 0.00317529,
        "meta_inclination": 98.6901,
        "meta_ra_of_asc_node": 358.6234,
        "meta_arg_of_pericenter": 224.0133,
        "meta_mean_anomaly": 165.0837,
        "meta_ephemeris_type": 0,
        "meta_classification_type": "U",
        "meta_norad_cat_id": 31462,
        "meta_element_set_no": 999,
        "meta_rev_at_epoch": 95761,
        "meta_bstar": 0.00053008886,
        "meta_mean_motion_dot": 9.5e-06,
        "meta_mean_motion_ddot": 0,
        "tle_line1": "1 31462U 99025BVA 25340.02535694  .00000950  00000+0  53009-3 0  9992",
        "tle_line2": "2 31462  98.6901 358.6234 0031752 224.0133 165.0837 14.12997652957619"
      },
      "geometry": {
        "type": "Point",
        "coordinates": [
          -13.742518339905239,
          56.84517221854451
        ]
      }
    },
    {
      "type": "Feature",
      "properties": {
        "norad_id": 31463,
        "name": "FENGYUN 1C DEB",
        "group": "fengyun-1c-debris",
        "lat": -80.73336919836252,
        "lon": 64.07284682839618,
        "alt_km": 904.4780733936195,
        "timestamp": "2025-12-07T05:38:10.186652+00:00",
        "meta_object_name": "FENGYUN 1C DEB",
        "meta_object_id": "1999-025BVB",
        "meta_epoch": "2025-12-01T16:22:11.548704",
        "meta_mean_motion": 14.36878903,
        "meta_eccentricity": 0.02141373,
        "meta_inclination": 99.0794,
        "meta_ra_of_asc_node": 316.76,
        "meta_arg_of_pericenter": 72.118,
        "meta_mean_anomaly": 290.3231,
        "meta_ephemeris_type": 0,
        "meta_classification_type": "U",
        "meta_norad_cat_id": 31463,
        "meta_element_set_no": 999,
        "meta_rev_at_epoch": 64561,
        "meta_bstar": 0.00046325906,
        "meta_mean_motion_dot": 1.728e-05,
        "meta_mean_motion_ddot": 0,
        "tle_line1": "1 31463U 99025BVB 25335.68207811  .00001728  00000+0  46326-3 0  9994",
        "tle_line2": "2 31463  99.0794 316.7600 0214137  72.1180 290.3231 14.36878903645618"
      },
      "geometry": {
        "type": "Point",
        "coordinates": [
          64.07284682839618,
          -80.73336919836252
        ]
      }
    },
    {
      "type": "Feature",
      "properties": {
        "norad_id": 31464,
        "name": "FENGYUN 1C DEB",
        "group": "fengyun-1c-debris",
        "lat": 12.310598589368022,
        "lon": 26.1843793362539,
        "alt_km": 864.8335611595385,
        "timestamp": "2025-12-07T05:38:10.186662+00:00",
        "meta_object_name": "FENGYUN 1C DEB",
        "meta_object_id": "1999-025BVC",
        "meta_epoch": "2025-12-06T09:14:26.687040",
        "meta_mean_motion": 14.12465481,
        "meta_eccentricity": 0.0043014,
        "meta_inclination": 98.7956,
        "meta_ra_of_asc_node": 27.2866,
        "meta_arg_of_pericenter": 260.6071,
        "meta_mean_anomaly": 112.7505,
        "meta_ephemeris_type": 0,
        "meta_classification_type": "U",
        "meta_norad_cat_id": 31464,
        "meta_element_set_no": 999,
        "meta_rev_at_epoch": 94590,
        "meta_bstar": 0.00053480352,
        "meta_mean_motion_dot": 9.52e-06,
        "meta_mean_motion_ddot": 0,
        "tle_line1": "1 31464U 99025BVC 25340.38503110  .00000952  00000+0  53480-3 0  9996",
        "tle_line2": "2 31464  98.7956  27.2866 0043014 260.6071 112.7505 14.12465481945903"
      },
      "geometry": {
        "type": "Point",
        "coordinates": [
          26.1843793362539,
          12.310598589368022
        ]
      }
    }
  ]
}